*******************************************************************************
Ephemeris / WWW_USER Mon Mar 10 08:39:02 2025 Pasadena, USA      / Horizons    
*******************************************************************************
Target body name: ASASSN (C/2017 O1)              {source: JPL#21}
Center body name: Earth (399)                     {source: DE441}
Center-site name: Mauna Kea
*******************************************************************************
Start time      : A.D. 2019-Jan-05 04:06:00.0000 UT      
Stop  time      : A.D. 2019-Jan-05 16:47:00.0000 UT      
Step-size       : 1 minutes
*******************************************************************************
Target pole/equ : undefined
Target radii    : undefined                                                    
Center geodetic : 204.5278, 19.8260847, 4.21024   {E-lon(deg),Lat(deg),Alt(km)}
Center cylindric: 204.5278, 6006.35451, 2151.0229 {E-lon(deg),Dxy(km),Dz(km)}
Center pole/equ : ITRF93                          {East-longitude positive}
Center radii    : 6378.137, 6378.137, 6356.752 km {Equator_a, b, pole_c}       
Target primary  : Sun
Vis. interferer : MOON (R_eq= 1737.400) km        {source: DE441}
Rel. light bend : Sun                             {source: DE441}
Rel. lght bnd GM: 1.3271E+11 km^3/s^2                                          
Small-body perts: Yes                             {source: SB441-N16}
Atmos refraction: NO (AIRLESS)
RA format       : HMS
Time format     : CAL 
Calendar mode   : Mixed Julian/Gregorian
RTS-only print  : NO       
EOP file        : eop.250307.p250603                                           
EOP coverage    : DATA-BASED 1962-JAN-20 TO 2025-MAR-07. PREDICTS-> 2025-JUN-02
Units conversion: 1 au= 149597870.700 km, c= 299792.458 km/s, 1 day= 86400.0 s 
Table cut-offs 1: Elevation (-90.0deg=NO ),Airmass (>38.000=NO), Daylight (YES)
Table cut-offs 2: Solar elongation (  0.0,180.0=NO ),Local Hour Angle( 0.0=NO )
Table cut-offs 3: RA/DEC angular rate (     0.0=NO )                           
*******************************************************************************
Initial IAU76/J2000 heliocentric ecliptic osculating elements (au, days, deg.):
  EPOCH=  2458039.5 ! 2017-Oct-13.0000000 (TDB)    RMSW= n.a.                  
   EC= .9964254882304144   QR= 1.498687032290766   TP= 2458041.2851755521      
   OM= 25.80948799039273   W= 20.90785287564418    IN= 39.84841297991522       
  Equivalent ICRF heliocentric cartesian coordinates (au, au/d):
   X= 1.103880574170232E+00  Y= 7.544591652134763E-01  Z= 6.774428678789283E-01
  VX=-1.240653547490291E-02 VY= 4.322571932715848E-03 VZ= 1.488380440184248E-02
Comet physical (GM= km^3/s^2; RAD= km):                                        
   GM= n.a.                RAD= n.a.                                           
   M1=  12.4     M2=  n.a.     k1=  8.75   k2= n.a.     PHCOF= n.a.            
*******************************************************************************
 Date__(UT)__HR:MN     R.A._________(ICRF)_________DEC
******************************************************
$$SOE
 2019-Jan-05 14:31     12 52 55.590290 +24 21 38.99946
 2019-Jan-05 14:32     12 52 55.591730 +24 21 39.12577
 2019-Jan-05 14:33     12 52 55.593169 +24 21 39.25206
 2019-Jan-05 14:34     12 52 55.594606 +24 21 39.37835
 2019-Jan-05 14:35     12 52 55.596042 +24 21 39.50463
 2019-Jan-05 14:36     12 52 55.597476 +24 21 39.63089
 2019-Jan-05 14:37     12 52 55.598909 +24 21 39.75715
 2019-Jan-05 14:38     12 52 55.600341 +24 21 39.88340
 2019-Jan-05 14:39     12 52 55.601771 +24 21 40.00964
 2019-Jan-05 14:40     12 52 55.603200 +24 21 40.13587
 2019-Jan-05 14:41     12 52 55.604628 +24 21 40.26209
 2019-Jan-05 14:42     12 52 55.606054 +24 21 40.38830
 2019-Jan-05 14:43     12 52 55.607479 +24 21 40.51450
 2019-Jan-05 14:44     12 52 55.608903 +24 21 40.64069
 2019-Jan-05 14:45     12 52 55.610325 +24 21 40.76687
 2019-Jan-05 14:46     12 52 55.611747 +24 21 40.89304
 2019-Jan-05 14:47     12 52 55.613166 +24 21 41.01920
 2019-Jan-05 14:48     12 52 55.614585 +24 21 41.14535
 2019-Jan-05 14:49     12 52 55.616002 +24 21 41.27149
 2019-Jan-05 14:50     12 52 55.617418 +24 21 41.39763
 2019-Jan-05 14:51     12 52 55.618833 +24 21 41.52375
 2019-Jan-05 14:52     12 52 55.620247 +24 21 41.64986
 2019-Jan-05 14:53     12 52 55.621659 +24 21 41.77596
 2019-Jan-05 14:54     12 52 55.623070 +24 21 41.90206
 2019-Jan-05 14:55     12 52 55.624480 +24 21 42.02814
 2019-Jan-05 14:56     12 52 55.625888 +24 21 42.15421
 2019-Jan-05 14:57     12 52 55.627296 +24 21 42.28028
 2019-Jan-05 14:58     12 52 55.628702 +24 21 42.40633
 2019-Jan-05 14:59     12 52 55.630107 +24 21 42.53237
 2019-Jan-05 15:00     12 52 55.631511 +24 21 42.65841
 2019-Jan-05 15:01     12 52 55.632914 +24 21 42.78443
 2019-Jan-05 15:02     12 52 55.634316 +24 21 42.91044
 2019-Jan-05 15:03     12 52 55.635716 +24 21 43.03645
 2019-Jan-05 15:04     12 52 55.637116 +24 21 43.16244
 2019-Jan-05 15:05     12 52 55.638514 +24 21 43.28842
 2019-Jan-05 15:06     12 52 55.639911 +24 21 43.41439
 2019-Jan-05 15:07     12 52 55.641307 +24 21 43.54036
 2019-Jan-05 15:08     12 52 55.642702 +24 21 43.66631
 2019-Jan-05 15:09     12 52 55.644096 +24 21 43.79225
 2019-Jan-05 15:10     12 52 55.645489 +24 21 43.91818
 2019-Jan-05 15:11     12 52 55.646881 +24 21 44.04411
 2019-Jan-05 15:12     12 52 55.648272 +24 21 44.17002
 2019-Jan-05 15:13     12 52 55.649661 +24 21 44.29592
 2019-Jan-05 15:14     12 52 55.651050 +24 21 44.42181
 2019-Jan-05 15:15     12 52 55.652438 +24 21 44.54769
 2019-Jan-05 15:16     12 52 55.653825 +24 21 44.67357
 2019-Jan-05 15:17     12 52 55.655210 +24 21 44.79943
 2019-Jan-05 15:18     12 52 55.656595 +24 21 44.92528
 2019-Jan-05 15:19     12 52 55.657979 +24 21 45.05112
 2019-Jan-05 15:20     12 52 55.659361 +24 21 45.17695
 2019-Jan-05 15:21     12 52 55.660743 +24 21 45.30277
 2019-Jan-05 15:22     12 52 55.662124 +24 21 45.42858
 2019-Jan-05 15:23     12 52 55.663504 +24 21 45.55437
 2019-Jan-05 15:24     12 52 55.664883 +24 21 45.68016
 2019-Jan-05 15:25     12 52 55.666261 +24 21 45.80594
 2019-Jan-05 15:26     12 52 55.667638 +24 21 45.93171
 2019-Jan-05 15:27     12 52 55.669014 +24 21 46.05747
 2019-Jan-05 15:28     12 52 55.670389 +24 21 46.18321
 2019-Jan-05 15:29     12 52 55.671764 +24 21 46.30895
 2019-Jan-05 15:30     12 52 55.673137 +24 21 46.43468
 2019-Jan-05 15:31     12 52 55.674510 +24 21 46.56039
 2019-Jan-05 15:32     12 52 55.675882 +24 21 46.68610
 2019-Jan-05 15:33     12 52 55.677253 +24 21 46.81179
 2019-Jan-05 15:34     12 52 55.678623 +24 21 46.93748
 2019-Jan-05 15:35     12 52 55.679992 +24 21 47.06315
 2019-Jan-05 15:36     12 52 55.681361 +24 21 47.18881
 2019-Jan-05 15:37     12 52 55.682729 +24 21 47.31447
 2019-Jan-05 15:38     12 52 55.684095 +24 21 47.44011
 2019-Jan-05 15:39     12 52 55.685462 +24 21 47.56574
 2019-Jan-05 15:40 A   12 52 55.686827 +24 21 47.69136
 2019-Jan-05 15:41 A   12 52 55.688192 +24 21 47.81697
 2019-Jan-05 15:42 A   12 52 55.689555 +24 21 47.94257
 2019-Jan-05 15:43 A   12 52 55.690919 +24 21 48.06816
 2019-Jan-05 15:44 A   12 52 55.692281 +24 21 48.19374
 2019-Jan-05 15:45 A   12 52 55.693643 +24 21 48.31931
 2019-Jan-05 15:46 A   12 52 55.695004 +24 21 48.44487
 2019-Jan-05 15:47 A   12 52 55.696364 +24 21 48.57041
 2019-Jan-05 15:48 A   12 52 55.697723 +24 21 48.69595
 2019-Jan-05 15:49 A   12 52 55.699082 +24 21 48.82148
 2019-Jan-05 15:50 A   12 52 55.700440 +24 21 48.94699
 2019-Jan-05 15:51 A   12 52 55.701798 +24 21 49.07249
 2019-Jan-05 15:52 A   12 52 55.703155 +24 21 49.19799
 2019-Jan-05 15:53 A   12 52 55.704511 +24 21 49.32347
 2019-Jan-05 15:54 A   12 52 55.705867 +24 21 49.44894
 2019-Jan-05 15:55 A   12 52 55.707222 +24 21 49.57441
 2019-Jan-05 15:56 A   12 52 55.708576 +24 21 49.69986
 2019-Jan-05 15:57 A   12 52 55.709930 +24 21 49.82530
 2019-Jan-05 15:58 A   12 52 55.711283 +24 21 49.95073
 2019-Jan-05 15:59 A   12 52 55.712635 +24 21 50.07615
 2019-Jan-05 16:00 A   12 52 55.713987 +24 21 50.20156
 2019-Jan-05 16:01 A   12 52 55.715339 +24 21 50.32695
 2019-Jan-05 16:02 A   12 52 55.716690 +24 21 50.45234
 2019-Jan-05 16:03 A   12 52 55.718040 +24 21 50.57772
 2019-Jan-05 16:04 A   12 52 55.719390 +24 21 50.70308
 2019-Jan-05 16:05 A   12 52 55.720739 +24 21 50.82844
 2019-Jan-05 16:06 A   12 52 55.722088 +24 21 50.95378
 2019-Jan-05 16:07 N   12 52 55.723436 +24 21 51.07912
 2019-Jan-05 16:08 N   12 52 55.724784 +24 21 51.20444
 2019-Jan-05 16:09 N   12 52 55.726131 +24 21 51.32975
 2019-Jan-05 16:10 N   12 52 55.727478 +24 21 51.45505
 2019-Jan-05 16:11 N   12 52 55.728824 +24 21 51.58034
 2019-Jan-05 16:12 N   12 52 55.730170 +24 21 51.70563
 2019-Jan-05 16:13 N   12 52 55.731516 +24 21 51.83089
 2019-Jan-05 16:14 N   12 52 55.732861 +24 21 51.95615
 2019-Jan-05 16:15 N   12 52 55.734205 +24 21 52.08140
 2019-Jan-05 16:16 Nt  12 52 55.735549 +24 21 52.20664
 2019-Jan-05 16:17 N   12 52 55.736893 +24 21 52.33187
 2019-Jan-05 16:18 N   12 52 55.738237 +24 21 52.45708
 2019-Jan-05 16:19 N   12 52 55.739580 +24 21 52.58229
 2019-Jan-05 16:20 N   12 52 55.740922 +24 21 52.70748
 2019-Jan-05 16:21 N   12 52 55.742265 +24 21 52.83266
 2019-Jan-05 16:22 N   12 52 55.743606 +24 21 52.95784
 2019-Jan-05 16:23 N   12 52 55.744948 +24 21 53.08300
 2019-Jan-05 16:24 N   12 52 55.746289 +24 21 53.20815
 2019-Jan-05 16:25 N   12 52 55.747630 +24 21 53.33329
 2019-Jan-05 16:26 N   12 52 55.748971 +24 21 53.45842
 2019-Jan-05 16:27 N   12 52 55.750311 +24 21 53.58354
 2019-Jan-05 16:28 N   12 52 55.751651 +24 21 53.70865
 2019-Jan-05 16:29 N   12 52 55.752991 +24 21 53.83375
 2019-Jan-05 16:30 N   12 52 55.754330 +24 21 53.95884
 2019-Jan-05 16:31 N   12 52 55.755669 +24 21 54.08391
 2019-Jan-05 16:32 N   12 52 55.757008 +24 21 54.20898
 2019-Jan-05 16:33 Nm  12 52 55.758347 +24 21 54.33403
 2019-Jan-05 16:34 Nm  12 52 55.759686 +24 21 54.45908
 2019-Jan-05 16:35 Cm  12 52 55.761024 +24 21 54.58411
